{
    "links": {
        "self": "http://www.neowsapp.com/rest/v1/neo/3674175?api_key=iIulBulltgU6a56xZRHN4H3l9WmuAYTsLGpBGhQ2"
    },
    "id": "3674175",
    "neo_reference_id": "3674175",
    "name": "(2014 MO41)",
    "designation": "2014 MO41",
    "nasa_jpl_url": "http://ssd.jpl.nasa.gov/sbdb.cgi?sstr=3674175",
    "absolute_magnitude_h": 23.3,
    "estimated_diameter": {
        "kilometers": {
            "estimated_diameter_min": 0.058150704,
            "estimated_diameter_max": 0.130028927
        },
        "meters": {
            "estimated_diameter_min": 58.1507039646,
            "estimated_diameter_max": 130.0289270043
        },
        "miles": {
            "estimated_diameter_min": 0.0361331611,
            "estimated_diameter_max": 0.0807962044
        },
        "feet": {
            "estimated_diameter_min": 190.7831555951,
            "estimated_diameter_max": 426.6041048727
        }
    },
    "is_potentially_hazardous_asteroid": false,
    "close_approach_data": [
        {
            "close_approach_date": "2014-07-05",
            "close_approach_date_full": "2014-Jul-05 09:27",
            "epoch_date_close_approach": 1404552420000,
            "relative_velocity": {
                "kilometers_per_second": "27.5765629971",
                "kilometers_per_hour": "99275.6267896169",
                "miles_per_hour": "61686.0137682483"
            },
            "miss_distance": {
                "astronomical": "0.0712945883",
                "lunar": "27.7335948487",
                "kilometers": "10665518.552206921",
                "miles": "6627245.9188646698"
            },
            "orbiting_body": "Earth"
        }
    ],
    "orbital_data": {
        "orbit_id": "5",
        "orbit_determination_date": "2017-04-06 08:39:52",
        "first_observation_date": "2014-06-27",
        "last_observation_date": "2014-07-06",
        "data_arc_in_days": 9,
        "observations_used": 19,
        "orbit_uncertainty": "9",
        "minimum_orbit_intersection": ".0690269",
        "jupiter_tisserand_invariant": "3.392",
        "epoch_osculation": "2456836.5",
        "eccentricity": ".7607257777679473",
        "semi_major_axis": "1.922100981682547",
        "inclination": "29.71735925544688",
        "ascending_node_longitude": "96.32041811028314",
        "orbital_period": "973.3358679396576",
        "perihelion_distance": ".4599092174435566",
        "perihelion_argument": "294.2863867784367",
        "aphelion_distance": "3.384292745921538",
        "perihelion_time": "2456893.738559142816",
        "mean_anomaly": "338.8296291443241",
        "mean_motion": ".3698620505602475",
        "equinox": "J2000",
        "orbit_class": {
            "orbit_class_type": "APO",
            "orbit_class_description": "Near-Earth asteroid orbits which cross the Earth’s orbit similar to that of 1862 Apollo",
            "orbit_class_range": "a (semi-major axis) > 1.0 AU; q (perihelion) < 1.017 AU"
        }
    },
    "is_sentry_object": false
}